IRIDIUM 171             
1 43929U 19002H   24158.14989528 -.00000075  00000+0 -33839-4 0  9998
2 43929  86.3955 303.4834 0002303  96.2244 263.9214 14.34217482282741
IRIDIUM 170             
1 43930U 19002J   24158.18123060  .00001760  00000+0  27513-3 0  9996
2 43930  86.6075 303.2917 0002317  87.7809 272.3673 14.72254307290231
IRIDIUM 167             
1 43931U 19002K   24158.14355114  .00000197  00000+0  63137-4 0  9996
2 43931  86.3949 303.2774 0002180  94.7576 265.3868 14.34217685282748
IRIDIUM 181             
1 56726U 23068S   24157.80851653  .00000635  00000+0  18165-3 0  9997
2 56726  86.8639 356.5984 0002184  93.7829 266.3622 14.43591408 55490
IRIDIUM 177             
1 56727U 23068T   24158.47655896  .00002638  00000+0  34355-3 0  9997
2 56727  86.1958 320.4478 0002513  97.5182 262.6325 14.80237882 56793
IRIDIUM 174             
1 56728U 23068U   24157.86271991  .00002554  00000+0  33255-3 0  9995
2 56728  86.1961 320.8422 0002063  93.7576 266.3881 14.80236803 56707
IRIDIUM 178             
1 56729U 23068V   24157.92501328  .00000859  00000+0  10962-3 0  9999
2 56729  86.5770 337.7446 0001980  82.2159 277.9287 14.80214137 56715
IRIDIUM 179             
1 56730U 23068W   24158.52775629  .00000882  00000+0  11269-3 0  9992
2 56730  86.6781 341.4867 0001942  87.4396 272.7048 14.80208797 56800
