<?xml version="1.0" encoding="UTF-8"?>
<ndm xmlns:xsi="http://www.w3.org/2001/XMLSchema-instance" xsi:noNamespaceSchemaLocation="https://sanaregistry.org/r/ndmxml_unqualified/ndmxml-2.0.0-master-2.0.xsd">
<omm id="CCSDS_OMM_VERS" version="2.0">
<header><CREATION_DATE/><ORIGINATOR/></header><body><segment><metadata><OBJECT_NAME>IRIDIUM 171</OBJECT_NAME><OBJECT_ID>2019-002H</OBJECT_ID><CENTER_NAME>EARTH</CENTER_NAME><REF_FRAME>TEME</REF_FRAME><TIME_SYSTEM>UTC</TIME_SYSTEM><MEAN_ELEMENT_THEORY>SGP4</MEAN_ELEMENT_THEORY></metadata><data><meanElements><EPOCH>2024-06-06T03:35:50.952192</EPOCH><MEAN_MOTION>14.34217482</MEAN_MOTION><ECCENTRICITY>.0002303</ECCENTRICITY><INCLINATION>86.3955</INCLINATION><RA_OF_ASC_NODE>303.4834</RA_OF_ASC_NODE><ARG_OF_PERICENTER>96.2244</ARG_OF_PERICENTER><MEAN_ANOMALY>263.9214</MEAN_ANOMALY></meanElements><tleParameters><EPHEMERIS_TYPE>0</EPHEMERIS_TYPE><CLASSIFICATION_TYPE>U</CLASSIFICATION_TYPE><NORAD_CAT_ID>43929</NORAD_CAT_ID><ELEMENT_SET_NO>999</ELEMENT_SET_NO><REV_AT_EPOCH>28274</REV_AT_EPOCH><BSTAR>-.33839E-4</BSTAR><MEAN_MOTION_DOT>-.75E-6</MEAN_MOTION_DOT><MEAN_MOTION_DDOT>0</MEAN_MOTION_DDOT></tleParameters></data></segment></body></omm>
<omm id="CCSDS_OMM_VERS" version="2.0">
<header><CREATION_DATE/><ORIGINATOR/></header><body><segment><metadata><OBJECT_NAME>IRIDIUM 170</OBJECT_NAME><OBJECT_ID>2019-002J</OBJECT_ID><CENTER_NAME>EARTH</CENTER_NAME><REF_FRAME>TEME</REF_FRAME><TIME_SYSTEM>UTC</TIME_SYSTEM><MEAN_ELEMENT_THEORY>SGP4</MEAN_ELEMENT_THEORY></metadata><data><meanElements><EPOCH>2024-06-06T04:20:58.323840</EPOCH><MEAN_MOTION>14.72254307</MEAN_MOTION><ECCENTRICITY>.0002317</ECCENTRICITY><INCLINATION>86.6075</INCLINATION><RA_OF_ASC_NODE>303.2917</RA_OF_ASC_NODE><ARG_OF_PERICENTER>87.7809</ARG_OF_PERICENTER><MEAN_ANOMALY>272.3673</MEAN_ANOMALY></meanElements><tleParameters><EPHEMERIS_TYPE>0</EPHEMERIS_TYPE><CLASSIFICATION_TYPE>U</CLASSIFICATION_TYPE><NORAD_CAT_ID>43930</NORAD_CAT_ID><ELEMENT_SET_NO>999</ELEMENT_SET_NO><REV_AT_EPOCH>29023</REV_AT_EPOCH><BSTAR>.27513E-3</BSTAR><MEAN_MOTION_DOT>.176E-4</MEAN_MOTION_DOT><MEAN_MOTION_DDOT>0</MEAN_MOTION_DDOT></tleParameters></data></segment></body></omm>
<omm id="CCSDS_OMM_VERS" version="2.0">
<header><CREATION_DATE/><ORIGINATOR/></header><body><segment><metadata><OBJECT_NAME>IRIDIUM 167</OBJECT_NAME><OBJECT_ID>2019-002K</OBJECT_ID><CENTER_NAME>EARTH</CENTER_NAME><REF_FRAME>TEME</REF_FRAME><TIME_SYSTEM>UTC</TIME_SYSTEM><MEAN_ELEMENT_THEORY>SGP4</MEAN_ELEMENT_THEORY></metadata><data><meanElements><EPOCH>2024-06-06T03:26:42.818496</EPOCH><MEAN_MOTION>14.34217685</MEAN_MOTION><ECCENTRICITY>.000218</ECCENTRICITY><INCLINATION>86.3949</INCLINATION><RA_OF_ASC_NODE>303.2774</RA_OF_ASC_NODE><ARG_OF_PERICENTER>94.7576</ARG_OF_PERICENTER><MEAN_ANOMALY>265.3868</MEAN_ANOMALY></meanElements><tleParameters><EPHEMERIS_TYPE>0</EPHEMERIS_TYPE><CLASSIFICATION_TYPE>U</CLASSIFICATION_TYPE><NORAD_CAT_ID>43931</NORAD_CAT_ID><ELEMENT_SET_NO>999</ELEMENT_SET_NO><REV_AT_EPOCH>28274</REV_AT_EPOCH><BSTAR>.63137E-4</BSTAR><MEAN_MOTION_DOT>.197E-5</MEAN_MOTION_DOT><MEAN_MOTION_DDOT>0</MEAN_MOTION_DDOT></tleParameters></data></segment></body></omm>
<omm id="CCSDS_OMM_VERS" version="2.0">
<header><CREATION_DATE/><ORIGINATOR/></header><body><segment><metadata><OBJECT_NAME>IRIDIUM 181</OBJECT_NAME><OBJECT_ID>2023-068S</OBJECT_ID><CENTER_NAME>EARTH</CENTER_NAME><REF_FRAME>TEME</REF_FRAME><TIME_SYSTEM>UTC</TIME_SYSTEM><MEAN_ELEMENT_THEORY>SGP4</MEAN_ELEMENT_THEORY></metadata><data><meanElements><EPOCH>2024-06-05T19:24:15.828192</EPOCH><MEAN_MOTION>14.43591408</MEAN_MOTION><ECCENTRICITY>.0002184</ECCENTRICITY><INCLINATION>86.8639</INCLINATION><RA_OF_ASC_NODE>356.5984</RA_OF_ASC_NODE><ARG_OF_PERICENTER>93.7829</ARG_OF_PERICENTER><MEAN_ANOMALY>266.3622</MEAN_ANOMALY></meanElements><tleParameters><EPHEMERIS_TYPE>0</EPHEMERIS_TYPE><CLASSIFICATION_TYPE>U</CLASSIFICATION_TYPE><NORAD_CAT_ID>56726</NORAD_CAT_ID><ELEMENT_SET_NO>999</ELEMENT_SET_NO><REV_AT_EPOCH>5549</REV_AT_EPOCH><BSTAR>.18165E-3</BSTAR><MEAN_MOTION_DOT>.635E-5</MEAN_MOTION_DOT><MEAN_MOTION_DDOT>0</MEAN_MOTION_DDOT></tleParameters></data></segment></body></omm>
<omm id="CCSDS_OMM_VERS" version="2.0">
<header><CREATION_DATE/><ORIGINATOR/></header><body><segment><metadata><OBJECT_NAME>IRIDIUM 177</OBJECT_NAME><OBJECT_ID>2023-068T</OBJECT_ID><CENTER_NAME>EARTH</CENTER_NAME><REF_FRAME>TEME</REF_FRAME><TIME_SYSTEM>UTC</TIME_SYSTEM><MEAN_ELEMENT_THEORY>SGP4</MEAN_ELEMENT_THEORY></metadata><data><meanElements><EPOCH>2024-06-06T11:26:14.694144</EPOCH><MEAN_MOTION>14.80237882</MEAN_MOTION><ECCENTRICITY>.0002513</ECCENTRICITY><INCLINATION>86.1958</INCLINATION><RA_OF_ASC_NODE>320.4478</RA_OF_ASC_NODE><ARG_OF_PERICENTER>97.5182</ARG_OF_PERICENTER><MEAN_ANOMALY>262.6325</MEAN_ANOMALY></meanElements><tleParameters><EPHEMERIS_TYPE>0</EPHEMERIS_TYPE><CLASSIFICATION_TYPE>U</CLASSIFICATION_TYPE><NORAD_CAT_ID>56727</NORAD_CAT_ID><ELEMENT_SET_NO>999</ELEMENT_SET_NO><REV_AT_EPOCH>5679</REV_AT_EPOCH><BSTAR>.34355E-3</BSTAR><MEAN_MOTION_DOT>.2638E-4</MEAN_MOTION_DOT><MEAN_MOTION_DDOT>0</MEAN_MOTION_DDOT></tleParameters></data></segment></body></omm>
<omm id="CCSDS_OMM_VERS" version="2.0">
<header><CREATION_DATE/><ORIGINATOR/></header><body><segment><metadata><OBJECT_NAME>IRIDIUM 174</OBJECT_NAME><OBJECT_ID>2023-068U</OBJECT_ID><CENTER_NAME>EARTH</CENTER_NAME><REF_FRAME>TEME</REF_FRAME><TIME_SYSTEM>UTC</TIME_SYSTEM><MEAN_ELEMENT_THEORY>SGP4</MEAN_ELEMENT_THEORY></metadata><data><meanElements><EPOCH>2024-06-05T20:42:19.000224</EPOCH><MEAN_MOTION>14.80236803</MEAN_MOTION><ECCENTRICITY>.0002063</ECCENTRICITY><INCLINATION>86.1961</INCLINATION><RA_OF_ASC_NODE>320.8422</RA_OF_ASC_NODE><ARG_OF_PERICENTER>93.7576</ARG_OF_PERICENTER><MEAN_ANOMALY>266.3881</MEAN_ANOMALY></meanElements><tleParameters><EPHEMERIS_TYPE>0</EPHEMERIS_TYPE><CLASSIFICATION_TYPE>U</CLASSIFICATION_TYPE><NORAD_CAT_ID>56728</NORAD_CAT_ID><ELEMENT_SET_NO>999</ELEMENT_SET_NO><REV_AT_EPOCH>5670</REV_AT_EPOCH><BSTAR>.33255E-3</BSTAR><MEAN_MOTION_DOT>.2554E-4</MEAN_MOTION_DOT><MEAN_MOTION_DDOT>0</MEAN_MOTION_DDOT></tleParameters></data></segment></body></omm>
<omm id="CCSDS_OMM_VERS" version="2.0">
<header><CREATION_DATE/><ORIGINATOR/></header><body><segment><metadata><OBJECT_NAME>IRIDIUM 178</OBJECT_NAME><OBJECT_ID>2023-068V</OBJECT_ID><CENTER_NAME>EARTH</CENTER_NAME><REF_FRAME>TEME</REF_FRAME><TIME_SYSTEM>UTC</TIME_SYSTEM><MEAN_ELEMENT_THEORY>SGP4</MEAN_ELEMENT_THEORY></metadata><data><meanElements><EPOCH>2024-06-05T22:12:01.147392</EPOCH><MEAN_MOTION>14.80214137</MEAN_MOTION><ECCENTRICITY>.000198</ECCENTRICITY><INCLINATION>86.5770</INCLINATION><RA_OF_ASC_NODE>337.7446</RA_OF_ASC_NODE><ARG_OF_PERICENTER>82.2159</ARG_OF_PERICENTER><MEAN_ANOMALY>277.9287</MEAN_ANOMALY></meanElements><tleParameters><EPHEMERIS_TYPE>0</EPHEMERIS_TYPE><CLASSIFICATION_TYPE>U</CLASSIFICATION_TYPE><NORAD_CAT_ID>56729</NORAD_CAT_ID><ELEMENT_SET_NO>999</ELEMENT_SET_NO><REV_AT_EPOCH>5671</REV_AT_EPOCH><BSTAR>.10962E-3</BSTAR><MEAN_MOTION_DOT>.859E-5</MEAN_MOTION_DOT><MEAN_MOTION_DDOT>0</MEAN_MOTION_DDOT></tleParameters></data></segment></body></omm>
<omm id="CCSDS_OMM_VERS" version="2.0">
<header><CREATION_DATE/><ORIGINATOR/></header><body><segment><metadata><OBJECT_NAME>IRIDIUM 179</OBJECT_NAME><OBJECT_ID>2023-068W</OBJECT_ID><CENTER_NAME>EARTH</CENTER_NAME><REF_FRAME>TEME</REF_FRAME><TIME_SYSTEM>UTC</TIME_SYSTEM><MEAN_ELEMENT_THEORY>SGP4</MEAN_ELEMENT_THEORY></metadata><data><meanElements><EPOCH>2024-06-06T12:39:58.143456</EPOCH><MEAN_MOTION>14.80208797</MEAN_MOTION><ECCENTRICITY>.0001942</ECCENTRICITY><INCLINATION>86.6781</INCLINATION><RA_OF_ASC_NODE>341.4867</RA_OF_ASC_NODE><ARG_OF_PERICENTER>87.4396</ARG_OF_PERICENTER><MEAN_ANOMALY>272.7048</MEAN_ANOMALY></meanElements><tleParameters><EPHEMERIS_TYPE>0</EPHEMERIS_TYPE><CLASSIFICATION_TYPE>U</CLASSIFICATION_TYPE><NORAD_CAT_ID>56730</NORAD_CAT_ID><ELEMENT_SET_NO>999</ELEMENT_SET_NO><REV_AT_EPOCH>5680</REV_AT_EPOCH><BSTAR>.11269E-3</BSTAR><MEAN_MOTION_DOT>.882E-5</MEAN_MOTION_DOT><MEAN_MOTION_DDOT>0</MEAN_MOTION_DDOT></tleParameters></data></segment></body></omm>
</ndm>
